GLOBALSTAR M045         
1 25676U 99019A   24226.12642363 -.00000082  00000+0  10185-3 0  9995
2 25676  51.9968 103.2957 0000961  33.6638  99.7999 12.27043618155814
GLOBALSTAR M019         
1 25677U 99019B   24225.88329150 -.00000099  00000+0 -96601-4 0  9991
2 25677  51.9844 212.6615 0000999  49.0114 338.8158 12.13859367147709
GLOBALSTAR M044         
1 25678U 99019C   24225.96859559 -.00000050  00000+0  47245-3 0  9997
2 25678  51.9963 125.2265 0006109 159.8355 213.6061 11.90236364134628
GLOBALSTAR M042         
1 25679U 99019D   24225.95452788 -.00000038  00000+0  50912-3 0  9991
2 25679  51.9986 201.0909 0003090  22.4879  11.4754 12.22067204147576
GLOBALSTAR M025         
1 25770U 99031A   24225.94581479 -.00000031  00000+0  11312-2 0  9999
2 25770  51.9803 153.3321 0001953 357.6717  79.6678 11.22552245447097
GLOBALSTAR M049         
1 25771U 99031B   24225.87398324 -.00000093  00000+0 -95214-3 0  9990
2 25771  51.9850 172.7665 0002636 222.2624 137.7969 11.12107319 83125
GLOBALSTAR M047         
1 25772U 99031C   24225.95508775 -.00000038  00000+0  87485-3 0  9992
2 25772  51.9799 199.0009 0016144  92.5014 267.7640 11.31921826436201
GLOBALSTAR M052         
1 25773U 99031D   24225.87812098 -.00000082  00000+0 -54672-3 0  9992
2 25773  51.9866 285.7751 0002280  23.8999 147.6806 11.15052829444118
